STARLINK-32507          
1 62132U 24222U   26068.55793403  .00033261  00000+0  12123-2 0  9999
2 62132  43.0013 136.5179 0001550 284.6210  75.4470 15.27593585 72582
COSMOS 2588             
1 64095U 25109A   26068.81179522  .00009169  00000+0  32611-3 0  9998
2 64095  72.9704  73.5401 0005019 308.6780  51.3966 15.29122656 44425
